start=new Date('2022-11-15T00:00:00.000Z').valueOf();
sats=[{"EPHEMERIS_TYPE":"0","TLE_LINE2":"2 47736  53.0550 237.7667 0001965  41.8873 318.2266 15.06388824 95408","DECAY_DATE":null,"TIME_SYSTEM":"UTC","OBJECT_TYPE":"PAYLOAD","COUNTRY_CODE":"US","MEAN_MOTION":"15.06388824","MEAN_MOTION_DOT":"-0.00001264","APOAPSIS":"548.609","BSTAR":"-0.00006600900000","CLASSIFICATION_TYPE":"U","REF_FRAME":"TEME","NORAD_CAT_ID":"47736","REV_AT_EPOCH":"9540","ELEMENT_SET_NO":"999","CENTER_NAME":"EARTH","ECCENTRICITY":"0.00019650","ARG_OF_PERICENTER":"41.8873","INCLINATION":"53.0550","FILE":"3656014","OBJECT_NAME":"STARLINK-2147","PERIAPSIS":"545.887","GP_ID":"217784936","PERIOD":"95.593","MEAN_MOTION_DDOT":"0.0000000000000","MEAN_ELEMENT_THEORY":"SGP4","RCS_SIZE":"LARGE","MEAN_ANOMALY":"318.2266","EPOCH":"2022-11-14T17:53:18.319488","TLE_LINE1":"1 47736U 21017Q   22318.74535092 -.00001264  00000-0 -66009-4 0  9999","OBJECT_ID":"2021-017Q","SEMIMAJOR_AXIS":"6925.383","LAUNCH_DATE":"2021-03-04","SITE":"AFETR","RA_OF_ASC_NODE":"237.7667"},{"ARG_OF_PERICENTER":"54.9997","ELEMENT_SET_NO":"999","ECCENTRICITY":"0.00019370","CENTER_NAME":"EARTH","REV_AT_EPOCH":"9697","OBJECT_NAME":"STARLINK-2148","FILE":"3656014","INCLINATION":"53.0536","PERIAPSIS":"461.783","PERIOD":"93.856","GP_ID":"217784667","RCS_SIZE":"LARGE","MEAN_ELEMENT_THEORY":"SGP4","MEAN_MOTION_DDOT":"0.0000000000000","TLE_LINE1":"1 47737U 21017R   22318.85306055  .00081022  00000-0  23934-2 0  9993","EPOCH":"2022-11-14T20:28:24.431520","MEAN_ANOMALY":"305.1185","OBJECT_ID":"2021-017R","SEMIMAJOR_AXIS":"6841.243","SITE":"AFETR","RA_OF_ASC_NODE":"126.9378","LAUNCH_DATE":"2021-03-04","EPHEMERIS_TYPE":"0","TLE_LINE2":"2 47737  53.0536 126.9378 0001937  54.9997 305.1185 15.34264411 96976","COUNTRY_CODE":"US","OBJECT_TYPE":"PAYLOAD","DECAY_DATE":null,"TIME_SYSTEM":"UTC","MEAN_MOTION":"15.34264411","MEAN_MOTION_DOT":"0.00081022","APOAPSIS":"464.433","BSTAR":"0.00239340000000","REF_FRAME":"TEME","CLASSIFICATION_TYPE":"U","NORAD_CAT_ID":"47737"},{"TLE_LINE2":"2 47738  53.0556 239.0317 0002270  41.9692 318.1471 15.06394059 95362","EPHEMERIS_TYPE":"0","MEAN_MOTION":"15.06394059","COUNTRY_CODE":"US","OBJECT_TYPE":"PAYLOAD","TIME_SYSTEM":"UTC","DECAY_DATE":null,"APOAPSIS":"548.804","MEAN_MOTION_DOT":"-0.00002292","CLASSIFICATION_TYPE":"U","NORAD_CAT_ID":"47738","REF_FRAME":"TEME","BSTAR":"-0.00013499000000","OBJECT_NAME":"STARLINK-2149","INCLINATION":"53.0556","FILE":"3656014","ARG_OF_PERICENTER":"41.9692","ELEMENT_SET_NO":"999","ECCENTRICITY":"0.00022700","CENTER_NAME":"EARTH","REV_AT_EPOCH":"9536","PERIOD":"95.593","GP_ID":"217783935","PERIAPSIS":"545.660","TLE_LINE1":"1 47738U 21017S   22318.52054640 -.00002292  00000-0 -13499-3 0  9998","EPOCH":"2022-11-14T12:29:35.208960","MEAN_ANOMALY":"318.1471","RCS_SIZE":"LARGE","MEAN_ELEMENT_THEORY":"SGP4","MEAN_MOTION_DDOT":"0.0000000000000","RA_OF_ASC_NODE":"239.0317","SITE":"AFETR","LAUNCH_DATE":"2021-03-04","OBJECT_ID":"2021-017S","SEMIMAJOR_AXIS":"6925.367"},{"TLE_LINE2":"2 47739  53.0542 262.4901 0001868  54.8603 305.2561 15.06394158 95068","EPHEMERIS_TYPE":"0","MEAN_MOTION":"15.06394158","DECAY_DATE":null,"TIME_SYSTEM":"UTC","OBJECT_TYPE":"PAYLOAD","COUNTRY_CODE":"US","APOAPSIS":"548.525","MEAN_MOTION_DOT":"0.00000680","NORAD_CAT_ID":"47739","CLASSIFICATION_TYPE":"U","REF_FRAME":"TEME","BSTAR":"0.00006456500000","FILE":"3656014","INCLINATION":"53.0542","OBJECT_NAME":"STARLINK-2150","REV_AT_EPOCH":"9506","CENTER_NAME":"EARTH","ELEMENT_SET_NO":"999","ECCENTRICITY":"0.00018680","ARG_OF_PERICENTER":"54.8603","GP_ID":"217784185","PERIOD":"95.593","PERIAPSIS":"545.938","MEAN_ANOMALY":"305.2561","EPOCH":"2022-11-14T19:22:51.794688","TLE_LINE1":"1 47739U 21017T   22318.80754392  .00000680  00000-0  64565-4 0  9999","MEAN_MOTION_DDOT":"0.0000000000000","MEAN_ELEMENT_THEORY":"SGP4","RCS_SIZE":"LARGE","LAUNCH_DATE":"2021-03-04","RA_OF_ASC_NODE":"262.4901","SITE":"AFETR","OBJECT_ID":"2021-017T","SEMIMAJOR_AXIS":"6925.366"},{"TLE_LINE2":"2 47740  53.0549 247.5775 0001860  50.6812 309.4341 15.06389707 95266","EPHEMERIS_TYPE":"0","MEAN_MOTION":"15.06389707","DECAY_DATE":null,"TIME_SYSTEM":"UTC","COUNTRY_CODE":"US","OBJECT_TYPE":"PAYLOAD","APOAPSIS":"548.533","MEAN_MOTION_DOT":"-0.00001258","REF_FRAME":"TEME","CLASSIFICATION_TYPE":"U","NORAD_CAT_ID":"47740","BSTAR":"-0.00006559300000","FILE":"3656014","INCLINATION":"53.0549","OBJECT_NAME":"STARLINK-2152","ELEMENT_SET_NO":"999","ECCENTRICITY":"0.00018600","CENTER_NAME":"EARTH","REV_AT_EPOCH":"9526","ARG_OF_PERICENTER":"50.6812","GP_ID":"217784436","PERIOD":"95.593","PERIAPSIS":"545.957","MEAN_ANOMALY":"309.4341","TLE_LINE1":"1 47740U 21017U   22318.78865624 -.00001258  00000-0 -65593-4 0  9995","EPOCH":"2022-11-14T18:55:39.899136","MEAN_MOTION_DDOT":"0.0000000000000","RCS_SIZE":"LARGE","MEAN_ELEMENT_THEORY":"SGP4","LAUNCH_DATE":"2021-03-04","SITE":"AFETR","RA_OF_ASC_NODE":"247.5775","SEMIMAJOR_AXIS":"6925.380","OBJECT_ID":"2021-017U"},{"EPHEMERIS_TYPE":"0","TLE_LINE2":"2 47741  53.0524 247.5108 0001586  61.6851 298.4298 15.06398553 95223","OBJECT_TYPE":"PAYLOAD","COUNTRY_CODE":"US","TIME_SYSTEM":"UTC","DECAY_DATE":null,"MEAN_MOTION":"15.06398553","MEAN_MOTION_DOT":"0.00007864","APOAPSIS":"548.316","BSTAR":"0.00054625000000","NORAD_CAT_ID":"47741","CLASSIFICATION_TYPE":"U","REF_FRAME":"TEME","ARG_OF_PERICENTER":"61.6851","REV_AT_EPOCH":"9522","ELEMENT_SET_NO":"999","ECCENTRICITY":"0.00015860","CENTER_NAME":"EARTH","OBJECT_NAME":"STARLINK-2154","INCLINATION":"53.0524","FILE":"3656014","PERIAPSIS":"546.120","PERIOD":"95.592","GP_ID":"217785168","MEAN_ELEMENT_THEORY":"SGP4","RCS_SIZE":"LARGE","MEAN_MOTION_DDOT":"0.0000000000000","EPOCH":"2022-11-14T19:16:53.715936","TLE_LINE1":"1 47741U 21017V   22318.80339949  .00007864  00000-0  54625-3 0  9995","MEAN_ANOMALY":"298.4298","OBJECT_ID":"2021-017V","SEMIMAJOR_AXIS":"6925.353","SITE":"AFETR","RA_OF_ASC_NODE":"247.5108","LAUNCH_DATE":"2021-03-04"},{"BSTAR":"-0.00004773900000","CLASSIFICATION_TYPE":"U","REF_FRAME":"TEME","NORAD_CAT_ID":"47742","MEAN_MOTION_DOT":"-0.00000993","APOAPSIS":"548.731","TIME_SYSTEM":"UTC","DECAY_DATE":null,"OBJECT_TYPE":"PAYLOAD","COUNTRY_CODE":"US","MEAN_MOTION":"15.06399893","EPHEMERIS_TYPE":"0","TLE_LINE2":"2 47742  53.0542 238.9395 0002190  41.1404 318.9750 15.06399893 94683","SEMIMAJOR_AXIS":"6925.349","OBJECT_ID":"2021-017W","LAUNCH_DATE":"2021-03-04","SITE":"AFETR","RA_OF_ASC_NODE":"238.9395","MEAN_MOTION_DDOT":"0.0000000000000","MEAN_ELEMENT_THEORY":"SGP4","RCS_SIZE":"LARGE","MEAN_ANOMALY":"318.9750","EPOCH":"2022-11-14T11:36:26.261856","TLE_LINE1":"1 47742U 21017W   22318.48363729 -.00000993  00000-0 -47739-4 0  9990","PERIAPSIS":"545.697","GP_ID":"217749974","PERIOD":"95.592","REV_AT_EPOCH":"9468","ELEMENT_SET_NO":"999","ECCENTRICITY":"0.00021900","CENTER_NAME":"EARTH","ARG_OF_PERICENTER":"41.1404","FILE":"3655368","INCLINATION":"53.0542","OBJECT_NAME":"STARLINK-2156"},{"OBJECT_TYPE":"PAYLOAD","COUNTRY_CODE":"US","DECAY_DATE":null,"TIME_SYSTEM":"UTC","MEAN_MOTION":"15.06392999","EPHEMERIS_TYPE":"0","TLE_LINE2":"2 47743  53.0547 238.8248 0001892  46.9680 313.1467 15.06392999 95348","BSTAR":"-0.00002922100000","REF_FRAME":"TEME","CLASSIFICATION_TYPE":"U","NORAD_CAT_ID":"47743","MEAN_MOTION_DOT":"-0.00000717","APOAPSIS":"548.545","PERIAPSIS":"545.925","PERIOD":"95.593","GP_ID":"217783685","ARG_OF_PERICENTER":"46.9680","REV_AT_EPOCH":"9534","ELEMENT_SET_NO":"999","ECCENTRICITY":"0.00018920","CENTER_NAME":"EARTH","OBJECT_NAME":"STARLINK-2157","FILE":"3656014","INCLINATION":"53.0547","SEMIMAJOR_AXIS":"6925.370","OBJECT_ID":"2021-017X","RA_OF_ASC_NODE":"238.8248","SITE":"AFETR","LAUNCH_DATE":"2021-03-04","MEAN_ELEMENT_THEORY":"SGP4","RCS_SIZE":"LARGE","MEAN_MOTION_DDOT":"0.0000000000000","EPOCH":"2022-11-14T12:13:36.232032","TLE_LINE1":"1 47743U 21017X   22318.50944713 -.00000717  00000-0 -29221-4 0  9992","MEAN_ANOMALY":"313.1467"},{"BSTAR":"0.00002173600000","NORAD_CAT_ID":"47744","CLASSIFICATION_TYPE":"U","REF_FRAME":"TEME","MEAN_MOTION_DOT":"0.00000042","APOAPSIS":"548.468","COUNTRY_CODE":"US","OBJECT_TYPE":"PAYLOAD","TIME_SYSTEM":"UTC","DECAY_DATE":null,"MEAN_MOTION":"15.06395499","EPHEMERIS_TYPE":"0","TLE_LINE2":"2 47744  53.0539 238.8887 0001792  48.9127 311.2017 15.06395499 95366","OBJECT_ID":"2021-017Y","SEMIMAJOR_AXIS":"6925.362","RA_OF_ASC_NODE":"238.8887","SITE":"AFETR","LAUNCH_DATE":"2021-03-04","RCS_SIZE":"LARGE","MEAN_ELEMENT_THEORY":"SGP4","MEAN_MOTION_DDOT":"0.0000000000000","TLE_LINE1":"1 47744U 21017Y   22318.48268927  .00000042  00000-0  21736-4 0  9998","EPOCH":"2022-11-14T11:35:04.352928","MEAN_ANOMALY":"311.2017","PERIAPSIS":"545.986","PERIOD":"95.592","GP_ID":"217739268","ARG_OF_PERICENTER":"48.9127","ELEMENT_SET_NO":"999","ECCENTRICITY":"0.00017920","CENTER_NAME":"EARTH","REV_AT_EPOCH":"9536","OBJECT_NAME":"STARLINK-2158","FILE":"3654975","INCLINATION":"53.0539"},{"PERIAPSIS":"545.909","GP_ID":"217784668","PERIOD":"95.592","ELEMENT_SET_NO":"999","ECCENTRICITY":"0.00018650","CENTER_NAME":"EARTH","REV_AT_EPOCH":"9521","ARG_OF_PERICENTER":"47.0387","FILE":"3656014","INCLINATION":"53.0550","OBJECT_NAME":"STARLINK-2159","OBJECT_ID":"2021-017Z","SEMIMAJOR_AXIS":"6925.335","LAUNCH_DATE":"2021-03-04","RA_OF_ASC_NODE":"247.5953","SITE":"AFETR","MEAN_MOTION_DDOT":"0.0000000000000","RCS_SIZE":"LARGE","MEAN_ELEMENT_THEORY":"SGP4","MEAN_ANOMALY":"313.0759","TLE_LINE1":"1 47745U 21017Z   22318.78128023  .00005667  00000-0  39896-3 0  9997","EPOCH":"2022-11-14T18:45:02.611872","DECAY_DATE":null,"TIME_SYSTEM":"UTC","COUNTRY_CODE":"US","OBJECT_TYPE":"PAYLOAD","MEAN_MOTION":"15.06404383","EPHEMERIS_TYPE":"0","TLE_LINE2":"2 47745  53.0550 247.5953 0001865  47.0387 313.0759 15.06404383 95210","BSTAR":"0.00039896000000","CLASSIFICATION_TYPE":"U","REF_FRAME":"TEME","NORAD_CAT_ID":"47745","MEAN_MOTION_DOT":"0.00005667","APOAPSIS":"548.492"}];
